KUIPER-00071            
1 64818U 25151C   25298.39367148  .00002630  00000+0  37398-3 0  9991
2 64818  51.8991 181.3509 0008420 131.6316 228.5369 14.79931821 15235
KUIPER-00072            
1 64819U 25151D   25298.83336806 -.00884970  00000+0 -66467-1 0  9992
2 64819  51.9027 160.9188 0003952 134.0246  52.5472 15.05005941  5073
KUIPER-00073            
1 64820U 25151E   25298.83267409  .00005341  00000+0  72811-3 0  9993
2 64820  51.8988 179.4093 0013761 163.5447 196.5965 14.79950720 16486
KUIPER-00074            
1 64821U 25151F   25298.83336806 -.00027073  00000+0 -35358-2 0  9994
2 64821  51.9024 166.9182 0012450 176.5709 114.4720 14.79879182  3642
KUIPER-00075            
1 64822U 25151G   25297.90467860  .00071090  00000+0  17806-2 0  9991
2 64822  51.8731 161.1557 0006175 138.5799 221.5658 15.39404983 15478
KUIPER-00076            
1 64823U 25151H   25298.84356896 -.00005284  00000+0 -66537-3 0  9992
2 64823  51.8995 169.3685 0003818 157.2137 202.8996 14.79879114 15447
KUIPER-00077            
1 64824U 25151J   25298.83810264  .00002306  00000+0  33183-3 0  9997
2 64824  51.8998 174.3934 0006600 127.0280 233.1287 14.79889332 15375
KUIPER-00078            
1 64825U 25151K   25298.80695888  .00005093  00000+0  69642-3 0  9993
2 64825  51.8991 172.0310 0007615 190.2457 169.8351 14.79937169 15400
